Satellite: CP4
Catalog number: 31122
Epoch time:      07199.89060653
Element set:    0088
Inclination:      098.0820 deg
RA of node:       272.1417 deg
Eccentricity:    0.0084276
Arg of perigee:   286.9924 deg
Mean anomaly:     072.1968 deg
Mean motion:   14.55019077 rev/day
Decay rate:       5.95e-06 rev/day^2
Epoch rev:           01346
Checksum:              324

Satellite: CP3
Catalog number: 31128
Epoch time:      07199.88568028
Element set:    0083
Inclination:      098.0814 deg
RA of node:       271.6771 deg
Eccentricity:    0.0101707
Arg of perigee:   288.2758 deg
Mean anomaly:     070.7358 deg
Mean motion:   14.51847802 rev/day
Decay rate:       -4.9e-07 rev/day^2
Epoch rev:           01342
Checksum:              321

Satellite: LIBERT
Catalog number: 31129
Epoch time:      07200.77608219
Element set:     230
Inclination:      098.0806 deg
RA of node:       272.5400 deg
Eccentricity:    0.0101604
Arg of perigee:   285.4775 deg
Mean anomaly:     073.5217 deg
Mean motion:   14.51940963 rev/day
Decay rate:       3.83e-06 rev/day^2
Epoch rev:            1353
Checksum:              273

/EX
SB KEPS @ AMSAT  $ORB07200.W
Orbital Elements  07200.WEATHER

HR AMSAT ORBITAL ELEMENTS FOR WEATHER SATELLITES
FROM WA5QGD FORT WORTH,TX July 19, 2007
Send Subscribe/unsubscribe to KEPS at 
http://www.amsat.org/mailman/listinfo/keps
BID: ORB07200.W
TO ALL RADIO AMATEURS BT

Satellite: NOAA-10
Catalog number: 16969
Epoch time:      07200.47934252
Element set:     734
Inclination:      098.7439 deg
RA of node:       217.6791 deg
Eccentricity:    0.0013325
Arg of perigee:   074.4049 deg
Mean anomaly:     285.8608 deg
Mean motion:   14.27329932 rev/day
Decay rate:        2.5e-07 rev/day^2
Epoch rev:            8383
Checksum:              325

Satellite: NOAA-11
Catalog number: 19531
Epoch time:      07200.30846383
Element set:     736
Inclination:      098.8124 deg
RA of node:       289.0742 deg
Eccentricity:    0.0010931
Arg of perigee:   302.0666 deg
Mean anomaly:     057.9489 deg
Mean motion:   14.14847285 rev/day
Decay rate:        9.5e-07 rev/day^2
Epoch rev:           97069
Checksum:              324

Satellite: NOAA-12
Catalog number: 21263
Epoch time:      07200.30905952
Element set:     232
Inclination:      098.7521 deg
RA of node:       197.4971 deg
Eccentricity:    0.0013089
Arg of perigee:   019.1692 deg
Mean anomaly:     341.0004 deg
Mean motion:   14.25547456 rev/day
Decay rate:       2.05e-06 rev/day^2
Epoch rev:           84082
Checksum:              279

Satellite: MET-3/5
Catalog number: 21655
Epoch time:      07199.92770716
Element set:    0297
Inclination:      082.5524 deg
RA of node:       340.5140 deg
Eccentricity:    0.0014202
Arg of perigee:   124.9558 deg
Mean anomaly:     235.2900 deg
Mean motion:   13.17011752 rev/day
Decay rate:        5.1e-07 rev/day^2
Epoch rev:           76558
Checksum:              293

Satellite: MET-2/21
Catalog number: 22782
Epoch time:      07200.91081629
Element set:     881
Inclination:      082.5473 deg
RA of node:       015.9496 deg
Eccentricity:    0.0023430
Arg of perigee:   141.2972 deg
Mean anomaly:     218.9874 deg
Mean motion:   13.83619263 rev/day
Decay rate:        3.9e-07 rev/day^2
Epoch rev:           70104
Checksum:              305

Satellite: OKEAN-4
Catalog number: 23317
Epoch time:      07200.78014315
Element set:     320
Inclination:      082.5385 deg
RA of node:       266.1271 deg
Eccentricity:    0.0023247
Arg of perigee:   141.4995 deg
Mean anomaly:     218.7884 deg
Mean motion:   14.82519973 rev/day
Decay rate:       2.16e-06 rev/day^2
Epoch rev:           68888
Checksum:              314

Satellite: NOAA-14
Catalog number: 23455
Epoch time:      07200.42344512
Element set:     715
Inclination:      098.9872 deg
RA of node:       266.7790 deg
Eccentricity:    0.0009509
Arg of perigee:   014.6473 deg
Mean anomaly:     345.4967 deg
Mean motion:   14.13722394 rev/day
Decay rate:      -1.64e-06 rev/day^2
Epoch rev:           64719
Checksum:              322

Satellite: SICH-1
Catalog number: 23657
Epoch time:      07199.83013476
Element set:     119
Inclination:      082.5258 deg
RA of node:       047.9583 deg
Eccentricity:    0.0024988
Arg of perigee:   136.0822 deg
Mean anomaly:     224.2363 deg
Mean motion:   14.81501371 rev/day
Decay rate:       2.01e-06 rev/day^2
Epoch rev:           64071
Checksum:              296

Satellite: NOAA-15
Catalog number: 25338
Epoch time:      07200.33821654
Element set:      73
Inclination:      098.5302 deg
RA of node:       196.1152 deg
Eccentricity:    0.0009589
Arg of perigee:   299.2856 deg
Mean anomaly:     060.7362 deg
Mean motion:   14.24654702 rev/day
Decay rate:       -7.7e-07 rev/day^2
Epoch rev:           47726
Checksum:              313

Satellite: RESURS
Catalog number: 25394
Epoch time:      07199.75422736
Element set:     690
Inclination:      098.4388 deg
RA of node:       253.0325 deg
Eccentricity:    0.0002385
Arg of perigee:   083.5966 deg
Mean anomaly:     276.5485 deg
Mean motion:   14.24140953 rev/day
Decay rate:        5.0e-08 rev/day^2
Epoch rev:           46884
Checksum:              331

Satellite: FENGYUN1
Catalog number: 25730
Epoch time:      07200.48047503
Element set:     175
Inclination:      098.6876 deg
RA of node:       183.1232 deg
Eccentricity:    0.0021706
Arg of perigee:   039.2509 deg
Mean anomaly:     321.0223 deg
Mean motion:   14.07557222 rev/day
Decay rate:       1.30e-06 rev/day^2
Epoch rev:           42201
Checksum:              249

Satellite: OKEAN-0
Catalog number: 25860
Epoch time:      07199.53788790
Element set:    0109
Inclination:      097.7310 deg
RA of node:       200.3216 deg
Eccentricity:    0.0000705
Arg of perigee:   042.1528 deg
Mean anomaly:     317.9728 deg
Mean motion:   14.73464032 rev/day
Decay rate:        5.3e-07 rev/day^2
Epoch rev:           43011
Checksum:              278

Satellite: NOAA-16
Catalog number: 26536
Epoch time:      07200.20890665
Element set:     490
Inclination:      099.1173 deg
RA of node:       177.7092 deg
Eccentricity:    0.0011544
Arg of perigee:   084.6405 deg
Mean anomaly:     275.6103 deg
Mean motion:   14.12441316 rev/day
Decay rate:       3.30e-06 rev/day^2
Epoch rev:           35162
Checksum:              276

Satellite: NOAA-17
Catalog number: 27453
Epoch time:      07200.42129156
Element set:     502
Inclination:      098.5777 deg
RA of node:       268.9492 deg
Eccentricity:    0.0011581
Arg of perigee:   006.0127 deg
Mean anomaly:     354.1187 deg
Mean motion:   14.23895672 rev/day
Decay rate:       2.34e-06 rev/day^2
Epoch rev:           26330
Checksum:              299

Satellite: NOAA-18
Catalog number: 28654
Epoch time:      07200.44524172
Element set:      38
Inclination:      098.8284 deg
RA of node:       141.1889 deg
Eccentricity:    0.0014284
Arg of perigee:   173.4717 deg
Mean anomaly:     186.6625 deg
Mean motion:   14.11080673 rev/day
Decay rate:       1.30e-06 rev/day^2
Epoch rev:           11140
Checksum:              289

/EX
SB KEPS @ AMSAT  $ORB07200.M
Orbital Elements  07200.MISC

HR AMSAT ORBITAL ELEMENTS FOR MANNED AND MISCELLANEOUS SATELLITES
FROM WA5QGD FORT WORTH,TX July 19, 2007
Send Subscribe/unsubscribe to KEPS at 
http://www.amsat.org/mailman/listinfo/keps
BID: ORB07200.M
TO ALL RADIO AMATEURS BT

Satellite: HUBBLE
Catalog number: 20580
Epoch time:      07200.53856060
Element set:     919
Inclination:      028.4682 deg
RA of node:       339.1640 deg
Eccentricity:    0.0003412
Arg of perigee:   086.0605 deg
Mean anomaly:     274.0365 deg
Mean motion:   15.00261546 rev/day
Decay rate:       3.01e-06 rev/day^2
Epoch rev:           74482
Checksum:              262

Satellite: UARS
Catalog number: 21701
Epoch time:      07200.94807134
Element set:     120
Inclination:      056.9733 deg
RA of node:       171.7286 deg
Eccentricity:    0.0085700
Arg of perigee:   254.3865 deg
Mean anomaly:     104.7667 deg
Mean motion:   15.48518229 rev/day
Decay rate:      2.531e-05 rev/day^2
Epoch rev:           87082
Checksum:              297

Satellite: PO-34
Catalog number: 25520
Epoch time:      07199.42440367
Element set:     781
Inclination:      028.4605 deg
RA of node:       259.6790 deg
Eccentricity:    0.0005450
Arg of perigee:   233.8915 deg
Mean anomaly:     126.1172 deg
Mean motion:   15.17023696 rev/day
Decay rate:       5.33e-06 rev/day^2
Epoch rev:           48227
Checksum:              305

Satellite: ISS
Catalog number: 25544
Epoch time:      07200.96250000
Element set:     614
Inclination:      051.6358 deg
RA of node:       294.4283 deg
Eccentricity:    0.0009040
Arg of perigee:   082.7700 deg
Mean anomaly:     266.4584 deg
Mean motion:   15.79212521 rev/day
Decay rate:     1.4708e-04 rev/day^2
Epoch rev:           49594
Checksum:              287

Satellite: OO-38
Catalog number: 26063
Epoch time:      07200.64283830
Element set:     963
Inclination:      100.2273 deg
RA of node:       209.2599 deg
Eccentricity:    0.0037434
Arg of perigee:   068.5949 deg
Mean anomaly:     291.9213 deg
Mean motion:   14.35810881 rev/day
Decay rate:       -2.3e-07 rev/day^2
Epoch rev:           39170
Checksum:              305

Satellite: UWE-1
Catalog number: 28892
Epoch time:      07199.74763374
Element set:    0799
Inclination:      098.1283 deg
RA of node:       095.7618 deg
Eccentricity:    0.0017867
Arg of perigee:   017.7905 deg
Mean anomaly:     342.3926 deg
Mean motion:   14.59523921 rev/day
Decay rate:       2.54e-06 rev/day^2
Epoch rev:           09181
Checksum:              357

